IRIDIUM 39              
1 25042U 97069D   26001.27484721  .00001454  00000+0  37339-3 0  9999
2 25042  86.3932 126.2545 0017840  11.4205 348.7400 14.49541158477651
IRIDIUM 38              
1 25043U 97069E   26001.31811404  .00000978  00000+0  31491-3 0  9990
2 25043  86.3987 149.8759 0003106 130.0512 230.0959 14.38337614474432
IRIDIUM 42              
1 25077U 97077A   25365.87198110  .00000835  00000+0  27778-3 0  9996
2 25077  86.3992 156.4752 0002069 114.5193 245.6220 14.36552555469574
IRIDIUM 44              
1 25078U 97077B   25365.91762844  .00000735  00000+0  22501-3 0  9991
2 25078  86.3985 137.8633 0003911  95.4980 264.6665 14.40450987472160
IRIDIUM 45              
1 25104U 97082A   26001.27208504  .00046455  00000+0  12764-2 0  9990
2 25104  86.3547 311.0432 0092617 306.1496  53.1209 15.32726343482263
IRIDIUM 24              
1 25105U 97082B   25365.91127889  .00000932  00000+0  27607-3 0  9993
2 25105  86.3912 356.4158 0012695 136.4065 223.8141 14.42350060471710
IRIDIUM 51              
1 25262U 98018A   26001.28727269  .00147864  00000+0  13203-2 0  9995
2 25262  86.3719 316.1756 0046679 189.3522 170.6883 15.66516150477708
IRIDIUM 57              
1 25273U 98019B   26001.21260754  .00000657  00000+0  21926-3 0  9992
2 25273  86.3940  62.2209 0002258  96.3041 263.8414 14.36068283453205
